NUSAT-50 (NANCY ROMAN)  
1 60493U 24149AB  26068.80227738  .00012094  00000+0  42252-3 0  9994
2 60493  97.3817 150.7693 0002523 238.0469 122.0527 15.29713355 86930
STARLINK-33702          
1 63591U 25076Y   26068.03869102  .00045868  00000+0  16650-2 0  9995
2 63591  43.0039 325.1251 0001687 264.3983  95.6676 15.27600182 51738
